[{"OBJECT_NAME":"TROLL","OBJECT_ID":"2025-009BB","EPOCH":"2026-03-09T05:24:19.835712","MEAN_MOTION":15.28164315,"ECCENTRICITY":0.00018165,"INCLINATION":97.3932,"RA_OF_ASC_NODE":150.7169,"ARG_OF_PERICENTER":59.185,"MEAN_ANOMALY":300.9568,"EPHEMERIS_TYPE":0,"CLASSIFICATION_TYPE":"U","NORAD_CAT_ID":62658,"ELEMENT_SET_NO":999,"REV_AT_EPOCH":11817,"BSTAR":0.00048220305,"MEAN_MOTION_DOT":0.00013174,"MEAN_MOTION_DDOT":0},{"OBJECT_NAME":"STARLINK-34114","OBJECT_ID":"2025-095R","EPOCH":"2026-03-08T09:10:51.516480","MEAN_MOTION":15.2760225,"ECCENTRICITY":8.94e-5,"INCLINATION":43.0021,"RA_OF_ASC_NODE":183.9699,"ARG_OF_PERICENTER":231.7805,"MEAN_ANOMALY":128.2966,"EPHEMERIS_TYPE":0,"CLASSIFICATION_TYPE":"U","NORAD_CAT_ID":63905,"ELEMENT_SET_NO":999,"REV_AT_EPOCH":4757,"BSTAR":0.0013938171,"MEAN_MOTION_DOT":0.00038318,"MEAN_MOTION_DDOT":0}]
